{"type": "FeatureCollection", "features": [{"type": "Feature", "properties": {"norad_id": 22490, "name": "SCD 1", "group": "resource", "lat": 10.559987101221141, "lon": -101.66518265552307, "alt_km": 706.3279394372121, "timestamp": "2025-12-19T20:42:59.737422+00:00", "meta": {"OBJECT_NAME": "SCD 1", "OBJECT_ID": "1993-009B", "EPOCH": "2025-12-18T10:33:14.558976", "MEAN_MOTION": 14.46002995, "ECCENTRICITY": 0.00420424, "INCLINATION": 24.9686, "RA_OF_ASC_NODE": 243.5007, "ARG_OF_PERICENTER": 25.3935, "MEAN_ANOMALY": 135.5853, "EPHEMERIS_TYPE": 0, "CLASSIFICATION_TYPE": "U", "NORAD_CAT_ID": 22490, "ELEMENT_SET_NO": 999, "REV_AT_EPOCH": 73492, "BSTAR": 7.3091886e-05, "MEAN_MOTION_DOT": 4.52e-06, "MEAN_MOTION_DDOT": 0}, "tle": {"line1": "1 22490U 93009B   25352.43975184  .00000452  00000+0  73092-4 0  9991", "line2": "2 22490  24.9686 243.5007 0042042  25.3935 135.5853 14.46002995734929"}}, "geometry": {"type": "Point", "coordinates": [-101.66518265552307, 10.559987101221141]}}, {"type": "Feature", "properties": {"norad_id": 25397, "name": "TECHSAT 1B (GO-32)", "group": "resource", "lat": -43.46715423285613, "lon": -14.127658711518302, "alt_km": 817.1796265311514, "timestamp": "2025-12-19T20:42:59.737456+00:00", "meta": {"OBJECT_NAME": "TECHSAT 1B (GO-32)", "OBJECT_ID": "1998-043D", "EPOCH": "2025-12-19T05:45:01.522944", "MEAN_MOTION": 14.24378852, "ECCENTRICITY": 0.00018669, "INCLINATION": 98.9925, "RA_OF_ASC_NODE": 336.6018, "ARG_OF_PERICENTER": 47.1475, "MEAN_ANOMALY": 312.9859, "EPHEMERIS_TYPE": 0, "CLASSIFICATION_TYPE": "U", "NORAD_CAT_ID": 25397, "ELEMENT_SET_NO": 999, "REV_AT_EPOCH": 42571, "BSTAR": 4.5722353e-05, "MEAN_MOTION_DOT": 5.9e-07, "MEAN_MOTION_DDOT": 0}, "tle": {"line1": "1 25397U 98043D   25353.23960096  .00000059  00000+0  45722-4 0  9990", "line2": "2 25397  98.9925 336.6018 0001866  47.1475 312.9859 14.24378852425716"}}, "geometry": {"type": "Point", "coordinates": [-14.127658711518302, -43.46715423285613]}}, {"type": "Feature", "properties": {"norad_id": 25504, "name": "SCD 2", "group": "resource", "lat": 16.771576490846375, "lon": 138.2830752784602, "alt_km": 724.5664456903378, "timestamp": "2025-12-19T20:42:59.737472+00:00", "meta": {"OBJECT_NAME": "SCD 2", "OBJECT_ID": "1998-060A", "EPOCH": "2025-12-18T15:14:50.678592", "MEAN_MOTION": 14.45426465, "ECCENTRICITY": 0.00168952, "INCLINATION": 24.9943, "RA_OF_ASC_NODE": 105.5425, "ARG_OF_PERICENTER": 16.0546, "MEAN_ANOMALY": 104.7334, "EPHEMERIS_TYPE": 0, "CLASSIFICATION_TYPE": "U", "NORAD_CAT_ID": 25504, "ELEMENT_SET_NO": 999, "REV_AT_EPOCH": 43417, "BSTAR": 5.2682688e-05, "MEAN_MOTION_DOT": 3.7e-06, "MEAN_MOTION_DDOT": 0}, "tle": {"line1": "1 25504U 98060A   25352.63530878  .00000370  00000+0  52683-4 0  9993", "line2": "2 25504  24.9943 105.5425 0016895  16.0546 104.7334 14.45426465434174"}}, "geometry": {"type": "Point", "coordinates": [138.2830752784602, 16.771576490846375]}}, {"type": "Feature", "properties": {"norad_id": 25757, "name": "DLR-TUBSAT", "group": "resource", "lat": 9.115311113147515, "lon": 159.99748980445233, "alt_km": 709.5696610659825, "timestamp": "2025-12-19T20:42:59.737486+00:00", "meta": {"OBJECT_NAME": "DLR-TUBSAT", "OBJECT_ID": "1999-029B", "EPOCH": "2025-12-17T13:22:10.787520", "MEAN_MOTION": 14.52359578, "ECCENTRICITY": 0.00141996, "INCLINATION": 98.6566, "RA_OF_ASC_NODE": 336.2196, "ARG_OF_PERICENTER": 177.8976, "MEAN_ANOMALY": 182.2281, "EPHEMERIS_TYPE": 0, "CLASSIFICATION_TYPE": "U", "NORAD_CAT_ID": 25757, "ELEMENT_SET_NO": 999, "REV_AT_EPOCH": 40688, "BSTAR": 3.7650132e-05, "MEAN_MOTION_DOT": 1.05e-06, "MEAN_MOTION_DDOT": 0}, "tle": {"line1": "1 25757U 99029B   25351.55706930  .00000105  00000+0  37650-4 0  9996", "line2": "2 25757  98.6566 336.2196 0014199 177.8976 182.2281 14.52359578406886"}}, "geometry": {"type": "Point", "coordinates": [159.99748980445233, 9.115311113147515]}}, {"type": "Feature", "properties": {"norad_id": 25994, "name": "TERRA", "group": "resource", "lat": 81.68623991210873, "lon": -61.13248973940676, "alt_km": 680.3323349968405, "timestamp": "2025-12-19T20:42:59.737498+00:00", "meta": {"OBJECT_NAME": "TERRA", "OBJECT_ID": "1999-068A", "EPOCH": "2025-12-19T05:49:56.963424", "MEAN_MOTION": 14.60908878, "ECCENTRICITY": 0.00035537, "INCLINATION": 97.974, "RA_OF_ASC_NODE": 44.6886, "ARG_OF_PERICENTER": 81.6944, "MEAN_ANOMALY": 350.9345, "EPHEMERIS_TYPE": 0, "CLASSIFICATION_TYPE": "U", "NORAD_CAT_ID": 25994, "ELEMENT_SET_NO": 999, "REV_AT_EPOCH": 38333, "BSTAR": 8.1391059e-05, "MEAN_MOTION_DOT": 3.54e-06, "MEAN_MOTION_DDOT": 0}, "tle": {"line1": "1 25994U 99068A   25353.24302041  .00000354  00000+0  81391-4 0  9992", "line2": "2 25994  97.9740  44.6886 0003553  81.6944 350.9345 14.60908878383331"}}, "geometry": {"type": "Point", "coordinates": [-61.13248973940676, 81.68623991210873]}}, {"type": "Feature", "properties": {"norad_id": 27004, "name": "MAROC-TUBSAT", "group": "resource", "lat": -75.60583998244032, "lon": -155.2815270333463, "alt_km": 994.9868265192645, "timestamp": "2025-12-19T20:42:59.737511+00:00", "meta": {"OBJECT_NAME": "MAROC-TUBSAT", "OBJECT_ID": "2001-056D", "EPOCH": "2025-12-19T06:12:09.864864", "MEAN_MOTION": 13.70253218, "ECCENTRICITY": 0.00191618, "INCLINATION": 99.7914, "RA_OF_ASC_NODE": 161.8176, "ARG_OF_PERICENTER": 242.7896, "MEAN_ANOMALY": 296.0924, "EPHEMERIS_TYPE": 0, "CLASSIFICATION_TYPE": "U", "NORAD_CAT_ID": 27004, "ELEMENT_SET_NO": 999, "REV_AT_EPOCH": 20154, "BSTAR": 2.3298821e-05, "MEAN_MOTION_DOT": -2.6e-07, "MEAN_MOTION_DDOT": 0}, "tle": {"line1": "1 27004U 01056D   25353.25844751 -.00000026  00000+0  23299-4 0  9996", "line2": "2 27004  99.7914 161.8176 0019161 242.7896 296.0924 13.70253218201546"}}, "geometry": {"type": "Point", "coordinates": [-155.2815270333463, -75.60583998244032]}}, {"type": "Feature", "properties": {"norad_id": 27424, "name": "AQUA", "group": "resource", "lat": -9.024960965919982, "lon": -43.79625678280025, "alt_km": 691.7768820571391, "timestamp": "2025-12-19T20:42:59.737523+00:00", "meta": {"OBJECT_NAME": "AQUA", "OBJECT_ID": "2002-022A", "EPOCH": "2025-12-18T00:44:29.182848", "MEAN_MOTION": 14.61821302, "ECCENTRICITY": 0.00012878, "INCLINATION": 98.4043, "RA_OF_ASC_NODE": 312.9961, "ARG_OF_PERICENTER": 113.4651, "MEAN_ANOMALY": 320.6588, "EPHEMERIS_TYPE": 0, "CLASSIFICATION_TYPE": "U", "NORAD_CAT_ID": 27424, "ELEMENT_SET_NO": 999, "REV_AT_EPOCH": 25680, "BSTAR": 0.00017905095, "MEAN_MOTION_DOT": 8.45e-06, "MEAN_MOTION_DDOT": 0}, "tle": {"line1": "1 27424U 02022A   25352.03089332  .00000845  00000+0  17905-3 0  9991", "line2": "2 27424  98.4043 312.9961 0001287 113.4651 320.6588 14.61821302256800"}}, "geometry": {"type": "Point", "coordinates": [-43.79625678280025, -9.024960965919982]}}, {"type": "Feature", "properties": {"norad_id": 28051, "name": "IRS-P6 (RESOURCESAT-1)", "group": "resource", "lat": -79.37091941042998, "lon": 84.29244025185892, "alt_km": 799.8329865878723, "timestamp": "2025-12-19T20:42:59.737535+00:00", "meta": {"OBJECT_NAME": "IRS-P6 (RESOURCESAT-1)", "OBJECT_ID": "2003-046A", "EPOCH": "2025-12-19T06:40:28.865568", "MEAN_MOTION": 14.36077518, "ECCENTRICITY": 0.00645677, "INCLINATION": 98.2172, "RA_OF_ASC_NODE": 33.3826, "ARG_OF_PERICENTER": 161.1348, "MEAN_ANOMALY": 331.9451, "EPHEMERIS_TYPE": 0, "CLASSIFICATION_TYPE": "U", "NORAD_CAT_ID": 28051, "ELEMENT_SET_NO": 999, "REV_AT_EPOCH": 15470, "BSTAR": 4.908243e-05, "MEAN_MOTION_DOT": 1.05e-06, "MEAN_MOTION_DDOT": 0}, "tle": {"line1": "1 28051U 03046A   25353.27811187  .00000105  00000+0  49082-4 0  9994", "line2": "2 28051  98.2172  33.3826 0064567 161.1348 331.9451 14.36077518154709"}}, "geometry": {"type": "Point", "coordinates": [84.29244025185892, -79.37091941042998]}}, {"type": "Feature", "properties": {"norad_id": 28220, "name": "SHIYAN-1 (SY-1)", "group": "resource", "lat": -10.365380504552117, "lon": 57.27693709698664, "alt_km": 482.97354546256247, "timestamp": "2025-12-19T20:42:59.737547+00:00", "meta": {"OBJECT_NAME": "SHIYAN-1 (SY-1)", "OBJECT_ID": "2004-012A", "EPOCH": "2025-12-19T03:28:38.259264", "MEAN_MOTION": 15.28303655, "ECCENTRICITY": 0.0005285, "INCLINATION": 97.8932, "RA_OF_ASC_NODE": 55.062, "ARG_OF_PERICENTER": 299.4151, "MEAN_ANOMALY": 60.656, "EPHEMERIS_TYPE": 0, "CLASSIFICATION_TYPE": "U", "NORAD_CAT_ID": 28220, "ELEMENT_SET_NO": 999, "REV_AT_EPOCH": 18354, "BSTAR": 0.00036633035, "MEAN_MOTION_DOT": 0.00010025, "MEAN_MOTION_DDOT": 0}, "tle": {"line1": "1 28220U 04012A   25353.14488726  .00010025  00000+0  36633-3 0  9990", "line2": "2 28220  97.8932  55.0620 0005285 299.4151  60.6560 15.28303655183545"}}, "geometry": {"type": "Point", "coordinates": [57.27693709698664, -10.365380504552117]}}, {"type": "Feature", "properties": {"norad_id": 28376, "name": "AURA", "group": "resource", "lat": 76.87263367079748, "lon": 162.98435286433025, "alt_km": 681.8766030110392, "timestamp": "2025-12-19T20:42:59.737559+00:00", "meta": {"OBJECT_NAME": "AURA", "OBJECT_ID": "2004-026A", "EPOCH": "2025-12-19T05:27:58.781952", "MEAN_MOTION": 14.60960787, "ECCENTRICITY": 0.00013467, "INCLINATION": 98.3193, "RA_OF_ASC_NODE": 303.4847, "ARG_OF_PERICENTER": 93.2087, "MEAN_ANOMALY": 266.9268, "EPHEMERIS_TYPE": 0, "CLASSIFICATION_TYPE": "U", "NORAD_CAT_ID": 28376, "ELEMENT_SET_NO": 999, "REV_AT_EPOCH": 13993, "BSTAR": 0.000161019, "MEAN_MOTION_DOT": 7.41e-06, "MEAN_MOTION_DDOT": 0}, "tle": {"line1": "1 28376U 04026A   25353.22776368  .00000741  00000+0  16102-3 0  9991", "line2": "2 28376  98.3193 303.4847 0001346  93.2087 266.9268 14.60960787139935"}}, "geometry": {"type": "Point", "coordinates": [162.98435286433025, 76.87263367079748]}}]}